RESURS-DK 1             
1 29228U 06021A   26186.34553578  .00002955  00000+0  17161-3 0  9994
2 29228  69.9334 292.5473 0006698 282.2262  77.8154 15.13295823105326
RADARSAT-2              
1 32382U 07061A   26186.58009354  .00000006  00000+0  19307-4 0  9998
2 32382  98.5778 193.2499 0001303  84.7171 275.4160 14.29981359968588
RESOURCESAT-2           
1 37387U 11015A   26186.38855274  .00000138  00000+0  83183-4 0  9999
2 37387  98.7636 253.7040 0011005 199.1708 160.9057 14.21604661788767
RASAT                   
1 37791U 11044D   26186.58843958  .00001244  00000+0  22394-3 0  9993
2 37791  98.0579 277.7051 0021540 131.3950 341.6801 14.68187707795889
RESOURCESAT-2A          
1 41877U 16074A   26186.65173737  .00000239  00000+0  12896-3 0  9999
2 41877  98.7519 260.0052 0002936  47.8140 312.3286 14.21607473496927
RCM-1                   
1 44322U 19033A   26186.10109002  .00001187  00000+0  12079-3 0  9995
2 44322  97.7600 193.2939 0001493  89.7056 270.4334 14.92593314384755
QPS-SAR-8 (AMATERU-IV)  
1 60542U 24149CC  26186.22095412  .00009758  00000+0  70374-3 0  9997
2 60542  97.6664 265.2209 0004389  67.8726 292.2966 15.04334286102985
QPS-SAR-9 (SUSANOO-I)   
1 63205U 25050A   26186.58975403  .00006311  00000+0  47037-3 0  9996
2 63205  42.0206   0.5355 0005857 273.7874  86.2283 15.03331819 71734
